COSMOS 2433 (720)       
1 32275U 07052A   24044.86528129 -.00000071  00000+0  00000+0 0  9995
2 32275  65.9773 344.5270 0003808 280.9289  79.0376  2.13103850126857
COSMOS 2432 (719)       
1 32276U 07052B   24045.19793772 -.00000073  00000+0  00000+0 0  9993
2 32276  65.9920 344.6276 0011991 325.9452 235.8222  2.13103173126897
COSMOS 2434 (721)       
1 32393U 07065A   24045.25745726  .00000081  00000+0  00000+0 0  9998
2 32393  64.3265 220.7740 0004973  76.0220 116.5871  2.13103063125602
COSMOS 2436 (723)       
1 32395U 07065C   24045.77310653  .00000085  00000+0  00000+0 0  9998
2 32395  64.3351 220.8198 0017114   9.1582 354.3515  2.13102762125553
COSMOS 2456 (730)       
1 36111U 09070A   24045.70844446 -.00000010  00000+0  00000+0 0  9990
2 36111  64.5564 100.1947 0005189 297.1415  38.1103  2.13098910110278
COSMOS 2457 (733)       
1 36112U 09070B   24045.60796856 -.00000009  00000+0  00000+0 0  9999
2 36112  64.5405 100.0597 0004239 187.9376 202.3101  2.13101091110289
COSMOS 2460 (732)       
1 36402U 10007C   24045.26700459 -.00000074  00000+0  00000+0 0  9991
2 36402  65.8361 343.2014 0002453 332.6204 146.4207  2.13106090108530
COSMOS 2476 (744)       
1 37867U 11064A   24045.38590954 -.00000005  00000+0  00000+0 0  9995
2 37867  64.8326 101.7947 0024249 238.4313 120.1347  2.13101583 95563
COSMOS 2477 (745)       
1 37868U 11064B   24045.24972133 -.00000004  00000+0  00000+0 0  9993
2 37868  64.8397 101.8705 0021452 239.5373 192.3302  2.13101374 95566
COSMOS 2475 (743)       
1 37869U 11064C   24044.36222571  .00000008  00000+0  00000+0 0  9993
2 37869  64.8465 101.9144 0026292 253.8234 175.8068  2.13101580 95556
COSMOS 2485 (747)       
1 39155U 13019A   24043.92196237  .00000014  00000+0  00000+0 0  9992
2 39155  64.9908 102.4025 0024502 234.5718 125.2767  2.13101611 84051
COSMOS 2492 (754)       
1 39620U 14012A   24044.81586773 -.00000071  00000+0  00000+0 0  9994
2 39620  65.7188 342.8115 0014925 322.5602  37.3471  2.13102989 77039
COSMOS 2500 (755)       
1 40001U 14032A   24044.99695614 -.00000072  00000+0  00000+0 0  9996
2 40001  65.6565 342.6203 0005447 223.3148 136.6540  2.13105937 75258
COSMOS 2501 (702K)      
1 40315U 14075A   24043.37173912  .00000069  00000+0  00000+0 0  9999
2 40315  63.6292 220.0505 0018221 203.4262 156.4809  2.13101263 71617
COSMOS 2514 (751)       
1 41330U 16008A   24045.23063442 -.00000074  00000+0  00000+0 0  9995
2 41330  65.4522 342.1530 0009461 223.7522 136.1851  2.13102532 62426
COSMOS 2522 (752)       
1 42939U 17055A   24044.13311784  .00000073  00000+0  00000+0 0  9995
2 42939  64.0891 221.0429 0005450 229.4914 130.4518  2.13101815 49751
COSMOS 2527 (756)       
1 43508U 18053A   24045.03054937  .00000000  00000+0  00000+0 0  9991
2 43508  65.1519 102.4913 0009743 237.1090 122.8702  2.13102288 44078
COSMOS 2529 (757)       
1 43687U 18086A   24043.72192486  .00000071  00000+0  00000+0 0  9999
2 43687  64.3053 221.5359 0006670 264.1261  95.7898  2.13101972 41051
COSMOS 2534 (758)       
1 44299U 19030A   24045.22640031  .00000081  00000+0  00000+0 0  9991
2 44299  64.3780 221.4263 0009274 291.9009 276.3964  2.13101888 36716
COSMOS 2544 (759)       
1 44850U 19088A   24044.97445302  .00000000  00000+0  00000+0 0  9993
2 44850  65.1383 102.3327 0014854 257.4006 102.5066  2.13102080 32511
COSMOS 2545 (760)       
1 45358U 20018A   24045.17132218 -.00000075  00000+0  00000+0 0  9997
2 45358  64.7925 342.2672 0009715 259.7621 100.1406  2.13102432 30463
COSMOS 2547 (705K)      
1 46805U 20075A   24043.48241249  .00000071  00000+0  00000+0 0  9990
2 46805  64.6063 221.0895 0005414 234.2253 125.7164  2.13102914 25671
COSMOS 2557 (706K)      
1 52984U 22075A   24045.52322372 -.00000077  00000+0  00000+0 0  9998
2 52984  64.7146 344.3973 0013298 286.1024  73.7610  2.13101637 12514
COSMOS 2559 (707K)      
1 54031U 22130A   24044.99646835 -.00000074  00000+0  00000+0 0  9995
2 54031  64.6863 344.5375 0006150 239.0534 120.8958  2.13100973 10489
COSMOS 2564 (761)       
1 54377U 22161A   24044.71923068  .00000077  00000+0  00000+0 0  9990
2 54377  64.7474 221.1302 0007406 206.0904 153.8634  2.13102033  9429
COSMOS 2569 (703K)      
1 57517U 23114A   24045.67604720 -.00000009  00000+0  00000+0 0  9991
2 57517  64.8635 101.5033 0012038 292.0378  67.9047  2.13104193  4075
